HAWK-6B                 
1 55324U 23011A   26068.41062443  .00007596  00000+0  33476-3 0  9994
2 55324  40.5121 213.6048 0001920  18.2889 341.7989 15.21905453172631
KESTREL-0A              
1 64624U 25138D   26068.97901572  .00012392  00000+0  55702-3 0  9991
2 64624  97.4430  74.1203 0015891 109.5327 250.7627 15.21159497 38856
