[{"OBJECT_NAME":"HAWK-6B","OBJECT_ID":"2023-011A","EPOCH":"2026-03-09T09:51:17.950752","MEAN_MOTION":15.21905453,"ECCENTRICITY":0.00019203,"INCLINATION":40.5121,"RA_OF_ASC_NODE":213.6048,"ARG_OF_PERICENTER":18.2889,"MEAN_ANOMALY":341.7989,"EPHEMERIS_TYPE":0,"CLASSIFICATION_TYPE":"U","NORAD_CAT_ID":55324,"ELEMENT_SET_NO":999,"REV_AT_EPOCH":17263,"BSTAR":0.00033476386,"MEAN_MOTION_DOT":7.596e-5,"MEAN_MOTION_DDOT":0},{"OBJECT_NAME":"KESTREL-0A","OBJECT_ID":"2025-138D","EPOCH":"2026-03-09T23:29:46.959072","MEAN_MOTION":15.21159497,"ECCENTRICITY":0.00158913,"INCLINATION":97.443,"RA_OF_ASC_NODE":74.1203,"ARG_OF_PERICENTER":109.5327,"MEAN_ANOMALY":250.7627,"EPHEMERIS_TYPE":0,"CLASSIFICATION_TYPE":"U","NORAD_CAT_ID":64624,"ELEMENT_SET_NO":999,"REV_AT_EPOCH":3885,"BSTAR":0.00055701832,"MEAN_MOTION_DOT":0.00012392,"MEAN_MOTION_DDOT":0}]
